0 COSMOS 1161
1 11696U 80012F   13281.13092648 -.00000021  00000-0 -37474-4 0  7220
2 11696 074.0197 150.1974 0022572 289.5492 240.1614 12.45110334529904
0 COSMOS 1161
1 11696U 80012F   13283.36745613  .00000011  00000-0  19052-3 0  7233
2 11696 074.0193 147.2507 0022602 286.2785 185.1191 12.45110024530188
0 COSMOS 1161
1 11696U 80012F   13285.76807131  .00000022  00000-0  26615-3 0  7249
2 11696 074.0188 144.0879 0022573 282.8040 145.5298 12.45110053530485
0 COSMOS 1161
1 11696U 80012F   13288.04003272  .00000005  00000-0  14457-3 0  7250
2 11696 074.0184 141.0945 0022560 279.5326 249.2509 12.45110341530766
0 COSMOS 1161
1 11696U 80012F   13290.11450197 -.00000025  00000-0 -65738-4 0  7267
2 11696 074.0182 138.3612 0022588 276.5599 187.7309 12.45110670531022
0 COSMOS 1161
1 11696U 80012F   13292.50384346 -.00000029  00000-0 -91398-4 0  7270
2 11696 074.0182 135.2129 0022575 273.0726 097.6426 12.45110672531325
0 COSMOS 1161
1 11696U 80012F   13294.85491446  .00000004  00000-0  13737-3 0  7282
2 11696 074.0178 132.1142 0022551 269.7755 195.8793 12.45110246531616
